[{"CCSDS_OMM_VERS":"2.0","COMMENT":"GENERATED VIA SPACE-TRACK.ORG API","CREATION_DATE":"2022-12-08T18:21:51","ORIGINATOR":"18 SPCS","OBJECT_NAME":"JCSAT 2A","OBJECT_ID":"2002-015A","CENTER_NAME":"EARTH","REF_FRAME":"TEME","TIME_SYSTEM":"UTC","MEAN_ELEMENT_THEORY":"SGP4","EPOCH":"2022-12-08T13:04:25.701888","MEAN_MOTION":"0.99028380","ECCENTRICITY":"0.00054050","INCLINATION":"5.0900","RA_OF_ASC_NODE":"77.6527","ARG_OF_PERICENTER":"61.9444","MEAN_ANOMALY":"79.6533","EPHEMERIS_TYPE":"0","CLASSIFICATION_TYPE":"U","NORAD_CAT_ID":"27399","ELEMENT_SET_NO":"999","REV_AT_EPOCH":"7591","BSTAR":"0.00000000000000","MEAN_MOTION_DOT":"-0.00000179","MEAN_MOTION_DDOT":"0.0000000000000","SEMIMAJOR_AXIS":"42516.946","PERIOD":"1454.129","APOAPSIS":"36161.791","PERIAPSIS":"36115.830","OBJECT_TYPE":"PAYLOAD","RCS_SIZE":"LARGE","COUNTRY_CODE":"JPN","LAUNCH_DATE":"2002-03-29","SITE":"FRGUI","DECAY_DATE":null,"FILE":"3684614","GP_ID":"219759866","TLE_LINE0":"0 JCSAT 2A","TLE_LINE1":"1 27399U 02015A   22342.54474192 -.00000179  00000-0  00000-0 0  9995","TLE_LINE2":"2 27399   5.0900  77.6527 0005405  61.9444  79.6533  0.99028380 75916"},{"CCSDS_OMM_VERS":"2.0","COMMENT":"GENERATED VIA SPACE-TRACK.ORG API","CREATION_DATE":"2022-12-08T18:21:51","ORIGINATOR":"18 SPCS","OBJECT_NAME":"TDRS 9","OBJECT_ID":"2002-011A","CENTER_NAME":"EARTH","REF_FRAME":"TEME","TIME_SYSTEM":"UTC","MEAN_ELEMENT_THEORY":"SGP4","EPOCH":"2022-12-08T05:44:24.585216","MEAN_MOTION":"1.00273392","ECCENTRICITY":"0.00256390","INCLINATION":"9.3892","RA_OF_ASC_NODE":"59.2297","ARG_OF_PERICENTER":"294.1238","MEAN_ANOMALY":"107.5319","EPHEMERIS_TYPE":"0","CLASSIFICATION_TYPE":"U","NORAD_CAT_ID":"27389","ELEMENT_SET_NO":"999","REV_AT_EPOCH":"7754","BSTAR":"0.00000000000000","MEAN_MOTION_DOT":"-0.00000280","MEAN_MOTION_DDOT":"0.0000000000000","SEMIMAJOR_AXIS":"42164.281","PERIOD":"1436.074","APOAPSIS":"35894.251","PERIAPSIS":"35678.041","OBJECT_TYPE":"PAYLOAD","RCS_SIZE":"LARGE","COUNTRY_CODE":"US","LAUNCH_DATE":"2002-03-08","SITE":"AFETR","DECAY_DATE":null,"FILE":"3684614","GP_ID":"219761109","TLE_LINE0":"0 TDRS 9","TLE_LINE1":"1 27389U 02011A   22342.23917344 -.00000280  00000-0  00000-0 0  9990","TLE_LINE2":"2 27389   9.3892  59.2297 0025639 294.1238 107.5319  1.00273392 77546"},{"CCSDS_OMM_VERS":"2.0","COMMENT":"GENERATED VIA SPACE-TRACK.ORG API","CREATION_DATE":"2022-12-08T18:21:51","ORIGINATOR":"18 SPCS","OBJECT_NAME":"INTELSAT 904","OBJECT_ID":"2002-007A","CENTER_NAME":"EARTH","REF_FRAME":"TEME","TIME_SYSTEM":"UTC","MEAN_ELEMENT_THEORY":"SGP4","EPOCH":"2022-12-08T11:28:09.384096","MEAN_MOTION":"1.00271321","ECCENTRICITY":"0.00033120","INCLINATION":"3.6726","RA_OF_ASC_NODE":"84.0704","ARG_OF_PERICENTER":"180.6490","MEAN_ANOMALY":"315.0344","EPHEMERIS_TYPE":"0","CLASSIFICATION_TYPE":"U","NORAD_CAT_ID":"27380","ELEMENT_SET_NO":"999","REV_AT_EPOCH":"3886","BSTAR":"0.00000000000000","MEAN_MOTION_DOT":"-0.00000201","MEAN_MOTION_DDOT":"0.0000000000000","SEMIMAJOR_AXIS":"42164.862","PERIOD":"1436.104","APOAPSIS":"35800.692","PERIAPSIS":"35772.762","OBJECT_TYPE":"PAYLOAD","RCS_SIZE":"LARGE","COUNTRY_CODE":"ITSO","LAUNCH_DATE":"2002-02-23","SITE":"FRGUI","DECAY_DATE":null,"FILE":"3684614","GP_ID":"219760365","TLE_LINE0":"0 INTELSAT 904","TLE_LINE1":"1 27380U 02007A   22342.47788639 -.00000201  00000-0  00000-0 0  9998","TLE_LINE2":"2 27380   3.6726  84.0704 0003312 180.6490 315.0344  1.00271321 38868"},{"CCSDS_OMM_VERS":"2.0","COMMENT":"GENERATED VIA SPACE-TRACK.ORG API","CREATION_DATE":"2022-12-08T18:21:51","ORIGINATOR":"18 SPCS","OBJECT_NAME":"ECHOSTAR 7","OBJECT_ID":"2002-006A","CENTER_NAME":"EARTH","REF_FRAME":"TEME","TIME_SYSTEM":"UTC","MEAN_ELEMENT_THEORY":"SGP4","EPOCH":"2022-12-08T13:26:42.606240","MEAN_MOTION":"0.99849960","ECCENTRICITY":"0.00015030","INCLINATION":"0.6844","RA_OF_ASC_NODE":"92.5758","ARG_OF_PERICENTER":"190.0033","MEAN_ANOMALY":"173.8160","EPHEMERIS_TYPE":"0","CLASSIFICATION_TYPE":"U","NORAD_CAT_ID":"27378","ELEMENT_SET_NO":"999","REV_AT_EPOCH":"3769","BSTAR":"0.00000000000000","MEAN_MOTION_DOT":"-0.00000031","MEAN_MOTION_DDOT":"0.0000000000000","SEMIMAJOR_AXIS":"42283.401","PERIOD":"1442.164","APOAPSIS":"35911.621","PERIAPSIS":"35898.911","OBJECT_TYPE":"PAYLOAD","RCS_SIZE":"LARGE","COUNTRY_CODE":"US","LAUNCH_DATE":"2002-02-21","SITE":"AFETR","DECAY_DATE":null,"FILE":"3684614","GP_ID":"219760114","TLE_LINE0":"0 ECHOSTAR 7","TLE_LINE1":"1 27378U 02006A   22342.56021535 -.00000031  00000-0  00000-0 0  9990","TLE_LINE2":"2 27378   0.6844  92.5758 0001503 190.0033 173.8160  0.99849960 37697"},{"CCSDS_OMM_VERS":"2.0","COMMENT":"GENERATED VIA SPACE-TRACK.ORG API","CREATION_DATE":"2022-12-08T18:21:51","ORIGINATOR":"18 SPCS","OBJECT_NAME":"INSAT 3C","OBJECT_ID":"2002-002A","CENTER_NAME":"EARTH","REF_FRAME":"TEME","TIME_SYSTEM":"UTC","MEAN_ELEMENT_THEORY":"SGP4","EPOCH":"2022-12-08T12:33:02.206944","MEAN_MOTION":"0.99297490","ECCENTRICITY":"0.00109800","INCLINATION":"5.2552","RA_OF_ASC_NODE":"76.9539","ARG_OF_PERICENTER":"116.4005","MEAN_ANOMALY":"139.1833","EPHEMERIS_TYPE":"0","CLASSIFICATION_TYPE":"U","NORAD_CAT_ID":"27298","ELEMENT_SET_NO":"999","REV_AT_EPOCH":"7631","BSTAR":"0.00000000000000","MEAN_MOTION_DOT":"0.00000098","MEAN_MOTION_DDOT":"0.0000000000000","SEMIMAJOR_AXIS":"42440.093","PERIOD":"1450.188","APOAPSIS":"36108.557","PERIAPSIS":"36015.359","OBJECT_TYPE":"PAYLOAD","RCS_SIZE":"LARGE","COUNTRY_CODE":"IND","LAUNCH_DATE":"2002-01-23","SITE":"FRGUI","DECAY_DATE":null,"FILE":"3684614","GP_ID":"219759864","TLE_LINE0":"0 INSAT 3C","TLE_LINE1":"1 27298U 02002A   22342.52294221  .00000098  00000-0  00000-0 0  9999","TLE_LINE2":"2 27298   5.2552  76.9539 0010980 116.4005 139.1833  0.99297490 76317"},{"CCSDS_OMM_VERS":"2.0","COMMENT":"GENERATED VIA SPACE-TRACK.ORG API","CREATION_DATE":"2022-12-08T18:21:51","ORIGINATOR":"18 SPCS","OBJECT_NAME":"TITAN 4 CENTAUR R\/B","OBJECT_ID":"2002-001B","CENTER_NAME":"EARTH","REF_FRAME":"TEME","TIME_SYSTEM":"UTC","MEAN_ELEMENT_THEORY":"SGP4","EPOCH":"2022-12-08T07:25:17.611104","MEAN_MOTION":"1.00176900","ECCENTRICITY":"0.00530520","INCLINATION":"8.3007","RA_OF_ASC_NODE":"35.4033","ARG_OF_PERICENTER":"102.5868","MEAN_ANOMALY":"257.9031","EPHEMERIS_TYPE":"0","CLASSIFICATION_TYPE":"U","NORAD_CAT_ID":"27169","ELEMENT_SET_NO":"999","REV_AT_EPOCH":"1348","BSTAR":"0.00000000000000","MEAN_MOTION_DOT":"0.00000128","MEAN_MOTION_DDOT":"0.0000000000000","SEMIMAJOR_AXIS":"42191.353","PERIOD":"1437.457","APOAPSIS":"36037.051","PERIAPSIS":"35589.384","OBJECT_TYPE":"ROCKET BODY","RCS_SIZE":null,"COUNTRY_CODE":"US","LAUNCH_DATE":"2002-01-14","SITE":"AFETR","DECAY_DATE":null,"FILE":"3684614","GP_ID":"219760363","TLE_LINE0":"0 TITAN 4 CENTAUR R\/B","TLE_LINE1":"1 27169U 02001B   22342.30923161  .00000128  00000-0  00000-0 0  9997","TLE_LINE2":"2 27169   8.3007  35.4033 0053052 102.5868 257.9031  1.00176900 13485"},{"CCSDS_OMM_VERS":"2.0","COMMENT":"GENERATED VIA SPACE-TRACK.ORG API","CREATION_DATE":"2022-12-08T18:21:51","ORIGINATOR":"18 SPCS","OBJECT_NAME":"USA 164","OBJECT_ID":"2002-001A","CENTER_NAME":"EARTH","REF_FRAME":"TEME","TIME_SYSTEM":"UTC","MEAN_ELEMENT_THEORY":"SGP4","EPOCH":"2022-12-08T08:15:21.686400","MEAN_MOTION":"1.00270887","ECCENTRICITY":"0.00029270","INCLINATION":"9.6925","RA_OF_ASC_NODE":"28.3153","ARG_OF_PERICENTER":"227.7633","MEAN_ANOMALY":"323.7785","EPHEMERIS_TYPE":"0","CLASSIFICATION_TYPE":"U","NORAD_CAT_ID":"27168","ELEMENT_SET_NO":"999","REV_AT_EPOCH":"1874","BSTAR":"0.00000000000000","MEAN_MOTION_DOT":"0.00000107","MEAN_MOTION_DDOT":"0.0000000000000","SEMIMAJOR_AXIS":"42164.984","PERIOD":"1436.110","APOAPSIS":"35799.190","PERIAPSIS":"35774.507","OBJECT_TYPE":"PAYLOAD","RCS_SIZE":null,"COUNTRY_CODE":"US","LAUNCH_DATE":"2002-01-14","SITE":"AFETR","DECAY_DATE":null,"FILE":"3684614","GP_ID":"219760112","TLE_LINE0":"0 USA 164","TLE_LINE1":"1 27168U 02001A   22342.34400100  .00000107  00000-0  00000-0 0  9990","TLE_LINE2":"2 27168   9.6925  28.3153 0002927 227.7633 323.7785  1.00270887 18747"},{"CCSDS_OMM_VERS":"2.0","COMMENT":"GENERATED VIA SPACE-TRACK.ORG API","CREATION_DATE":"2022-12-08T18:21:51","ORIGINATOR":"18 SPCS","OBJECT_NAME":"DIRECTV 4S","OBJECT_ID":"2001-052A","CENTER_NAME":"EARTH","REF_FRAME":"TEME","TIME_SYSTEM":"UTC","MEAN_ELEMENT_THEORY":"SGP4","EPOCH":"2022-12-08T12:16:43.902336","MEAN_MOTION":"0.99266999","ECCENTRICITY":"0.00025160","INCLINATION":"2.9525","RA_OF_ASC_NODE":"86.6270","ARG_OF_PERICENTER":"35.9642","MEAN_ANOMALY":"278.4944","EPHEMERIS_TYPE":"0","CLASSIFICATION_TYPE":"U","NORAD_CAT_ID":"26985","ELEMENT_SET_NO":"999","REV_AT_EPOCH":"3829","BSTAR":"0.00000000000000","MEAN_MOTION_DOT":"-0.00000293","MEAN_MOTION_DDOT":"0.0000000000000","SEMIMAJOR_AXIS":"42448.783","PERIOD":"1450.633","APOAPSIS":"36081.328","PERIAPSIS":"36059.968","OBJECT_TYPE":"PAYLOAD","RCS_SIZE":"LARGE","COUNTRY_CODE":"US","LAUNCH_DATE":"2001-11-27","SITE":"FRGUI","DECAY_DATE":null,"FILE":"3684614","GP_ID":"219760597","TLE_LINE0":"0 DIRECTV 4S","TLE_LINE1":"1 26985U 01052A   22342.51161924 -.00000293  00000-0  00000-0 0  9995","TLE_LINE2":"2 26985   2.9525  86.6270 0002516  35.9642 278.4944  0.99266999 38296"}]